{
  "norad_id": 66952,
  "name": "STARLINK-36122",
  "history": [
    {
      "epoch": "2026-03-28T18:37:39.197568",
      "apogee_km": 475.7313863052168,
      "perigee_km": 474.6624032843056,
      "latitude_deg": -31.12336952761819,
      "longitude_deg": -130.28978048008867,
      "semi_major_axis_km": 6853.33389479476,
      "eccentricity": 7.799e-05,
      "inclination_deg": 53.1572,
      "raan_deg": 270.171,
      "arg_perigee_deg": 79.1188,
      "mean_anomaly_deg": 280.99,
      "mean_motion_rev_day": 15.30206087
    }
  ]
}